#aV2018 12  7  0  0  0.00000000     288 DD+AD WGS84 FIT  NGA
## 2030 432000.00000000   300.00000000 58459 0.0000000000000
+   31     1  2  3  5  6  7  8  9 10 11 12 13 14 15 16 17 18
+         19 20 21 22 23 24 25 26 27 28 29 30 31 32  0  0  0
+          0  0  0  0  0  0  0  0  0  0  0  0  0  0  0  0  0
+          0  0  0  0  0  0  0  0  0  0  0  0  0  0  0  0  0
+          0  0  0  0  0  0  0  0  0  0  0  0  0  0  0  0  0
++         2  2  2  2  2  2  2  2  2  2  2  2  2  2  2  2  2
++         2  2  2  2  2  2  2  2  2  2  2  2  2  2  0  0  0
++         0  0  0  0  0  0  0  0  0  0  0  0  0  0  0  0  0
++         0  0  0  0  0  0  0  0  0  0  0  0  0  0  0  0  0
++         0  0  0  0  0  0  0  0  0  0  0  0  0  0  0  0  0
%c cc cc ccc ccc cccc cccc cccc cccc ccccc ccccc ccccc ccccc
%c cc cc ccc ccc cccc cccc cccc cccc ccccc ccccc ccccc ccccc
%f  0.0000000  0.000000000  0.00000000000  0.000000000000000
%f  0.0000000  0.000000000  0.00000000000  0.000000000000000
%i    0    0    0    0      0      0      0      0         0
%i    0    0    0    0      0      0      0      0         0
/*      NGA, ST. LOUIS,MO.                                  
/*   EPHEMERIS COMPUTED FROM 2 DAYS OF DATA                 
/*   EPOCHA v3 SMOOTHER                                     
/*   G1762 IERS2010 SATAF SATAPC                            
*  2018 12  7 23 30  0.00000000
P  1 -17572.754865 -13528.101557 -15007.341522   -125.509231                    
V  1  18585.035220   1810.412369 -23365.009137     -0.057576                    
P  2  -5372.990384  14993.741717  21822.625587    -79.604101                    
V  2 -26165.453798  -3443.159842  -4399.841862     -0.103987                    
P  3 -13456.558167 -21680.313777   7456.411214    167.593409                    
V  3   -834.832817  -9812.567367 -29811.214758      0.033873                    
P  5    965.704921  23999.703924  10990.044538      0.262927                    
V  5  -7949.629543 -12167.006387  27170.513052      0.002006                    
P  6 -19398.328184   7953.710374  16355.146581    320.389043                    
V  6 -20094.525650  -5061.327707 -21399.641278     -0.068198                    
P  7 -25977.992922  -6400.237643   2001.991816     74.660520                    
V  7   2652.206516  -2052.985147  31245.248089     -0.069912                    
P  8    779.048414 -19891.749255 -17446.563883   -124.810076                    
V  8  15352.529507 -16250.748711  19325.566364     -0.013163                    
P  9 -17054.651918  -1856.896001  20232.990010    485.408464                    
V  9  15451.758484 -20715.736315  11090.205609     -0.038009                    
P 10  14161.424465  -5459.011393 -21752.438472    154.661716                    
V 10   9698.924523  25970.398515   -385.268574     -0.051783                    
P 11 -12297.588235 -12979.015903 -20130.506847   -691.303675                    
V 11  23458.366611  -7762.253717  -9813.040718      0.044958                    
P 12  10054.288795  24289.797211   4230.050364    286.259729                    
V 12   -251.219395   5884.887454 -31559.692316     -0.029637                    
P 13  -9236.776833  21147.245140 -13240.365747    -82.270071                    
V 13 -13531.293448   9865.550634  25449.633403      0.011632                    
P 14  18752.697075 -18652.868694   -510.978671    -94.923493                    
V 14   1430.303856   2816.437666 -31857.162417      0.004689                    
P 15   4446.304660  18309.921230 -18819.641138   -337.091613                    
V 15 -15116.271208  18279.275952  14801.822309      0.014023                    
P 16   1606.094235 -23506.312935  11662.572970     -5.357331                    
V 16   6016.988211  14093.207278  27611.916568     -0.021784                    
P 17 -20816.540395  12943.054689  -9674.292858    -21.604553                    
V 17   7256.489109 -10845.429505 -29024.411205      0.050632                    
P 18  -7647.538408 -15699.065029 -20528.996937      3.111813                    
V 18  24916.477420   2243.763946 -11116.888584      0.040015                    
P 19 -19508.769604  18095.857312  -1098.250039   -376.147587                    
V 19   -706.638016  -2196.567847 -32089.642362      0.038515                    
P 20  18129.912370   4302.864479 -19091.873291    519.667836                    
V 20   9374.339616  22221.730613  13871.395233      0.004613                    
P 21  26320.859903   3064.853272   -102.440489   -291.281627                    
V 21    674.236249   3459.889725  31498.111800      0.066528                    
P 22 -10759.159099 -24305.760098     -8.033862   -593.117896                    
V 22   3664.130917  -1317.323391 -30937.146227     -0.093935                    
P 23 -11034.927800 -11314.739736  21628.845580   -204.165336                    
V 23  17197.683312 -20615.088841  -2451.038181      0.010444                    
P 24  13166.374569  14854.912049 -17932.828377    -59.235542                    
V 24 -22481.692541  -1126.606955 -17254.467332     -0.004896                    
P 25  15798.489965  16548.409241  13509.387655   -687.953112                    
V 25   4194.773836  16933.853422 -25060.349020     -0.055423                    
P 26   7468.225216 -17278.108082  18670.786938     61.299816                    
V 26  10192.369514  21566.362532  16032.466198      0.108936                    
P 27   9857.429966 -22414.124193 -10022.290682    -28.949002                    
V 27   9797.436075  -8331.179026  28770.228096     -0.057044                    
P 28 -14243.277499   2498.470164 -21654.484325    757.629888                    
V 28  -7360.061432 -28003.042222   1638.429875      0.015071                    
P 29  14881.912466   4960.690023  21411.685697    320.235482                    
V 29 -18335.323329  20054.369867   8088.063040     -0.080758                    
P 30 -24969.824843   1266.431417  -9193.923723    -16.332490                    
V 30 -10757.310913  -5406.642846  28246.368601     -0.058726                    
P 31  17565.345555  -9154.376329  17921.379064     74.407177                    
V 31  21823.315920   5839.275224 -17995.254574     -0.025977                    
P 32  20118.725329 -15016.242900  -8482.133419   -327.709713                    
V 32  -4736.317539  10165.092989 -29195.149644      0.152625                    
EOF
